SKYNET 5A               
1 30794U 07007B   26141.78759998 -.00000278  00000+0  00000+0 0  9999
2 30794   5.2349  74.0546 0004252 356.3927 187.7207  1.00268967 70437
ANIK F3                 
1 31102U 07009A   26142.24806437 -.00000009  00000+0  00000+0 0  9990
2 31102   1.1325  84.1223 0002580 332.0036 154.3448  1.00271570 46308
ASTRA 1L                
1 31306U 07016A   26142.09281191 -.00000192  00000+0  00000+0 0  9994
2 31306   1.2564  81.7520 0004992 348.7805 178.0832  1.00271013 44726
GALAXY 17 (G-17)        
1 31307U 07016B   26142.00212122 -.00000213  00000+0  00000+0 0  9998
2 31307   2.9081  80.2133 0004550 355.8775  79.2896  1.00268119 69540
INTELSAT 11 (IS-11)     
1 32253U 07044B   26142.24775674  .00000064  00000+0  00000+0 0  9995
2 32253   3.5002  78.9692 0000580 103.3248  26.5766  0.99047692 68194
WGS F1 (USA 195)        
1 32258U 07046A   26142.22446493 -.00000275  00000+0  00000+0 0  9999
2 32258   0.0649  93.6640 0000329 241.5347 302.9689  1.00270750 52072
SKYNET 5B               
1 32294U 07056B   26142.02390726  .00000133  00000+0  00000+0 0  9997
2 32294   5.1874  73.8063 0003513 346.1619 213.4367  1.00275428 67936
ASTRA 4A                
1 32299U 07057A   26142.07614138  .00000024  00000+0  00000+0 0  9993
2 32299   0.0368  58.2831 0002191   1.3819 212.2473  1.00271802 51385
HORIZONS-2              
1 32388U 07063B   26142.22100479 -.00000261  00000+0  00000+0 0  9998
2 32388   2.5374  80.9267 0003755 340.1080 184.5880  1.00273137 67556
THURAYA-3               
1 32404U 08001A   26142.18358324 -.00000309  00000+0  00000+0 0  9992
2 32404   5.9478  35.7703 0002061  22.2000 346.3681  1.00267419 67237
THOR 5                  
1 32487U 08006A   26141.66232691 -.00000017  00000+0  00000+0 0  9994
2 32487   0.0010  66.0646 0002438   3.1269  47.7867  1.00271478 67050
AMC-14                  
1 32708U 08011A   26141.74525751  .00000000  00000+0  00000+0 0  9998
2 32708  23.9769  20.8391 0047987   4.0896 180.8125  1.00350812 67900
DIRECTV 11              
1 32729U 08013A   26142.28044341 -.00000133  00000+0  00000+0 0  9992
2 32729   0.0034 135.1209 0000154 227.1568 239.4053  1.00268427 45335
ICO G1                  
1 32763U 08016A   26142.21449537 -.00000181  00000+0  00000+0 0  9995
2 32763   5.5282  36.2058 0002439   4.1984 183.8095  1.00272793 66280
VINASAT-1               
1 32767U 08018A   26142.25904509 -.00000336  00000+0  00000+0 0  9992
2 32767   0.0093 327.6668 0001503  96.8430  40.5826  1.00273319 66335
STAR ONE C2             
1 32768U 08018B   26142.22240419 -.00000284  00000+0  00000+0 0  9995
2 32768   1.1769  82.6626 0002600 335.1737 197.0986  1.00270048 66395
AMOS-3                  
1 32794U 08022A   26142.23694499  .00000133  00000+0  00000+0 0  9993
2 32794   0.3902  86.5274 0001054  63.4633 195.5688  1.00462955 82079
