[{"OBJECT_NAME":"SKYNET 5A","OBJECT_ID":"2007-007B","EPOCH":"2026-05-21T18:54:08.638272","MEAN_MOTION":1.00268967,"ECCENTRICITY":0.00042527,"INCLINATION":5.2349,"RA_OF_ASC_NODE":74.0546,"ARG_OF_PERICENTER":356.3927,"MEAN_ANOMALY":187.7207,"EPHEMERIS_TYPE":0,"CLASSIFICATION_TYPE":"U","NORAD_CAT_ID":30794,"ELEMENT_SET_NO":999,"REV_AT_EPOCH":7043,"BSTAR":0,"MEAN_MOTION_DOT":-2.78e-06,"MEAN_MOTION_DDOT":0},{"OBJECT_NAME":"ANIK F3","OBJECT_ID":"2007-009A","EPOCH":"2026-05-22T05:57:12.761568","MEAN_MOTION":1.0027157,"ECCENTRICITY":0.00025805,"INCLINATION":1.1325,"RA_OF_ASC_NODE":84.1223,"ARG_OF_PERICENTER":332.0036,"MEAN_ANOMALY":154.3448,"EPHEMERIS_TYPE":0,"CLASSIFICATION_TYPE":"U","NORAD_CAT_ID":31102,"ELEMENT_SET_NO":999,"REV_AT_EPOCH":4630,"BSTAR":0,"MEAN_MOTION_DOT":-9e-08,"MEAN_MOTION_DDOT":0},{"OBJECT_NAME":"ASTRA 1L","OBJECT_ID":"2007-016A","EPOCH":"2026-05-22T02:13:38.949024","MEAN_MOTION":1.00271013,"ECCENTRICITY":0.00049927,"INCLINATION":1.2564,"RA_OF_ASC_NODE":81.752,"ARG_OF_PERICENTER":348.7805,"MEAN_ANOMALY":178.0832,"EPHEMERIS_TYPE":0,"CLASSIFICATION_TYPE":"U","NORAD_CAT_ID":31306,"ELEMENT_SET_NO":999,"REV_AT_EPOCH":4472,"BSTAR":0,"MEAN_MOTION_DOT":-1.92e-06,"MEAN_MOTION_DDOT":0},{"OBJECT_NAME":"GALAXY 17 (G-17)","OBJECT_ID":"2007-016B","EPOCH":"2026-05-22T00:03:03.273408","MEAN_MOTION":1.00268119,"ECCENTRICITY":0.00045508,"INCLINATION":2.9081,"RA_OF_ASC_NODE":80.2133,"ARG_OF_PERICENTER":355.8775,"MEAN_ANOMALY":79.2896,"EPHEMERIS_TYPE":0,"CLASSIFICATION_TYPE":"U","NORAD_CAT_ID":31307,"ELEMENT_SET_NO":999,"REV_AT_EPOCH":6954,"BSTAR":0,"MEAN_MOTION_DOT":-2.13e-06,"MEAN_MOTION_DDOT":0},{"OBJECT_NAME":"INTELSAT 11 (IS-11)","OBJECT_ID":"2007-044B","EPOCH":"2026-05-22T05:56:46.182336","MEAN_MOTION":0.99047692,"ECCENTRICITY":5.806e-05,"INCLINATION":3.5002,"RA_OF_ASC_NODE":78.9692,"ARG_OF_PERICENTER":103.3248,"MEAN_ANOMALY":26.5766,"EPHEMERIS_TYPE":0,"CLASSIFICATION_TYPE":"U","NORAD_CAT_ID":32253,"ELEMENT_SET_NO":999,"REV_AT_EPOCH":6819,"BSTAR":0,"MEAN_MOTION_DOT":6.4e-07,"MEAN_MOTION_DDOT":0},{"OBJECT_NAME":"WGS F1 (USA 195)","OBJECT_ID":"2007-046A","EPOCH":"2026-05-22T05:23:13.769952","MEAN_MOTION":1.0027075,"ECCENTRICITY":3.293e-05,"INCLINATION":0.0649,"RA_OF_ASC_NODE":93.664,"ARG_OF_PERICENTER":241.5347,"MEAN_ANOMALY":302.9689,"EPHEMERIS_TYPE":0,"CLASSIFICATION_TYPE":"U","NORAD_CAT_ID":32258,"ELEMENT_SET_NO":999,"REV_AT_EPOCH":5207,"BSTAR":0,"MEAN_MOTION_DOT":-2.75e-06,"MEAN_MOTION_DDOT":0},{"OBJECT_NAME":"SKYNET 5B","OBJECT_ID":"2007-056B","EPOCH":"2026-05-22T00:34:25.587264","MEAN_MOTION":1.00275428,"ECCENTRICITY":0.00035138,"INCLINATION":5.1874,"RA_OF_ASC_NODE":73.8063,"ARG_OF_PERICENTER":346.1619,"MEAN_ANOMALY":213.4367,"EPHEMERIS_TYPE":0,"CLASSIFICATION_TYPE":"U","NORAD_CAT_ID":32294,"ELEMENT_SET_NO":999,"REV_AT_EPOCH":6793,"BSTAR":0,"MEAN_MOTION_DOT":1.33e-06,"MEAN_MOTION_DDOT":0},{"OBJECT_NAME":"ASTRA 4A","OBJECT_ID":"2007-057A","EPOCH":"2026-05-22T01:49:38.615232","MEAN_MOTION":1.00271802,"ECCENTRICITY":0.00021917,"INCLINATION":0.0368,"RA_OF_ASC_NODE":58.2831,"ARG_OF_PERICENTER":1.3819,"MEAN_ANOMALY":212.2473,"EPHEMERIS_TYPE":0,"CLASSIFICATION_TYPE":"U","NORAD_CAT_ID":32299,"ELEMENT_SET_NO":999,"REV_AT_EPOCH":5138,"BSTAR":0,"MEAN_MOTION_DOT":2.4e-07,"MEAN_MOTION_DDOT":0},{"OBJECT_NAME":"HORIZONS-2","OBJECT_ID":"2007-063B","EPOCH":"2026-05-22T05:18:14.813856","MEAN_MOTION":1.00273137,"ECCENTRICITY":0.00037553,"INCLINATION":2.5374,"RA_OF_ASC_NODE":80.9267,"ARG_OF_PERICENTER":340.108,"MEAN_ANOMALY":184.588,"EPHEMERIS_TYPE":0,"CLASSIFICATION_TYPE":"U","NORAD_CAT_ID":32388,"ELEMENT_SET_NO":999,"REV_AT_EPOCH":6755,"BSTAR":0,"MEAN_MOTION_DOT":-2.61e-06,"MEAN_MOTION_DDOT":0},{"OBJECT_NAME":"THURAYA-3","OBJECT_ID":"2008-001A","EPOCH":"2026-05-22T04:24:21.591936","MEAN_MOTION":1.00267419,"ECCENTRICITY":0.00020616,"INCLINATION":5.9478,"RA_OF_ASC_NODE":35.7703,"ARG_OF_PERICENTER":22.2,"MEAN_ANOMALY":346.3681,"EPHEMERIS_TYPE":0,"CLASSIFICATION_TYPE":"U","NORAD_CAT_ID":32404,"ELEMENT_SET_NO":999,"REV_AT_EPOCH":6723,"BSTAR":0,"MEAN_MOTION_DOT":-3.09e-06,"MEAN_MOTION_DDOT":0},{"OBJECT_NAME":"THOR 5","OBJECT_ID":"2008-006A","EPOCH":"2026-05-21T15:53:45.045024","MEAN_MOTION":1.00271478,"ECCENTRICITY":0.00024389,"INCLINATION":0.001,"RA_OF_ASC_NODE":66.0646,"ARG_OF_PERICENTER":3.1269,"MEAN_ANOMALY":47.7867,"EPHEMERIS_TYPE":0,"CLASSIFICATION_TYPE":"U","NORAD_CAT_ID":32487,"ELEMENT_SET_NO":999,"REV_AT_EPOCH":6705,"BSTAR":0,"MEAN_MOTION_DOT":-1.7e-07,"MEAN_MOTION_DDOT":0},{"OBJECT_NAME":"AMC-14","OBJECT_ID":"2008-011A","EPOCH":"2026-05-21T17:53:10.248864","MEAN_MOTION":1.00350812,"ECCENTRICITY":0.00479874,"INCLINATION":23.9769,"RA_OF_ASC_NODE":20.8391,"ARG_OF_PERICENTER":4.0896,"MEAN_ANOMALY":180.8125,"EPHEMERIS_TYPE":0,"CLASSIFICATION_TYPE":"U","NORAD_CAT_ID":32708,"ELEMENT_SET_NO":999,"REV_AT_EPOCH":6790,"BSTAR":0,"MEAN_MOTION_DOT":0,"MEAN_MOTION_DDOT":0},{"OBJECT_NAME":"DIRECTV 11","OBJECT_ID":"2008-013A","EPOCH":"2026-05-22T06:43:50.310624","MEAN_MOTION":1.00268427,"ECCENTRICITY":1.544e-05,"INCLINATION":0.0034,"RA_OF_ASC_NODE":135.1209,"ARG_OF_PERICENTER":227.1568,"MEAN_ANOMALY":239.4053,"EPHEMERIS_TYPE":0,"CLASSIFICATION_TYPE":"U","NORAD_CAT_ID":32729,"ELEMENT_SET_NO":999,"REV_AT_EPOCH":4533,"BSTAR":0,"MEAN_MOTION_DOT":-1.33e-06,"MEAN_MOTION_DDOT":0},{"OBJECT_NAME":"ICO G1","OBJECT_ID":"2008-016A","EPOCH":"2026-05-22T05:08:52.399968","MEAN_MOTION":1.00272793,"ECCENTRICITY":0.00024392,"INCLINATION":5.5282,"RA_OF_ASC_NODE":36.2058,"ARG_OF_PERICENTER":4.1984,"MEAN_ANOMALY":183.8095,"EPHEMERIS_TYPE":0,"CLASSIFICATION_TYPE":"U","NORAD_CAT_ID":32763,"ELEMENT_SET_NO":999,"REV_AT_EPOCH":6628,"BSTAR":0,"MEAN_MOTION_DOT":-1.81e-06,"MEAN_MOTION_DDOT":0},{"OBJECT_NAME":"VINASAT-1","OBJECT_ID":"2008-018A","EPOCH":"2026-05-22T06:13:01.495776","MEAN_MOTION":1.00273319,"ECCENTRICITY":0.00015031,"INCLINATION":0.0093,"RA_OF_ASC_NODE":327.6668,"ARG_OF_PERICENTER":96.843,"MEAN_ANOMALY":40.5826,"EPHEMERIS_TYPE":0,"CLASSIFICATION_TYPE":"U","NORAD_CAT_ID":32767,"ELEMENT_SET_NO":999,"REV_AT_EPOCH":6633,"BSTAR":0,"MEAN_MOTION_DOT":-3.36e-06,"MEAN_MOTION_DDOT":0},{"OBJECT_NAME":"STAR ONE C2","OBJECT_ID":"2008-018B","EPOCH":"2026-05-22T05:20:15.722016","MEAN_MOTION":1.00270048,"ECCENTRICITY":0.00026003,"INCLINATION":1.1769,"RA_OF_ASC_NODE":82.6626,"ARG_OF_PERICENTER":335.1737,"MEAN_ANOMALY":197.0986,"EPHEMERIS_TYPE":0,"CLASSIFICATION_TYPE":"U","NORAD_CAT_ID":32768,"ELEMENT_SET_NO":999,"REV_AT_EPOCH":6639,"BSTAR":0,"MEAN_MOTION_DOT":-2.84e-06,"MEAN_MOTION_DDOT":0},{"OBJECT_NAME":"AMOS-3","OBJECT_ID":"2008-022A","EPOCH":"2026-05-22T05:41:12.047136","MEAN_MOTION":1.00462955,"ECCENTRICITY":0.00010542,"INCLINATION":0.3902,"RA_OF_ASC_NODE":86.5274,"ARG_OF_PERICENTER":63.4633,"MEAN_ANOMALY":195.5688,"EPHEMERIS_TYPE":0,"CLASSIFICATION_TYPE":"U","NORAD_CAT_ID":32794,"ELEMENT_SET_NO":999,"REV_AT_EPOCH":8207,"BSTAR":0,"MEAN_MOTION_DOT":1.33e-06,"MEAN_MOTION_DDOT":0}]